ONEWEB-0199             
1 48234U 21031AA  22230.67249564 -.00000100  00000+0 -30475-3 0  9994
2 48234  87.9037 207.6627 0001970  78.7132 281.4219 13.14504560 64536
ONEWEB-0203             
1 48235U 21031AB  22230.66192347 -.00000227  00000+0 -64691-3 0  9997
2 48235  87.9058 207.6564 0002587  82.2098 277.9326 13.14502627 64548
ONEWEB-0197             
1 48236U 21031AC  22230.64924467 -.00000111  00000+0 -33376-3 0  9990
2 48236  87.9044 207.6711 0002042  79.4321 280.7039 13.14501657 64456
ONEWEB-0194             
1 48237U 21031AD  22230.69363689  .00000262  00000+0  67291-3 0  9997
2 48237  87.9035 207.6533 0002463  87.8543 272.2869 13.14501915 64639
ONEWEB-0193             
1 48238U 21031AE  22230.93890322  .00000149  00000+0  36853-3 0  9998
2 48238  87.9045 207.6145 0002237  77.5030 282.6350 13.14500448 64614
ONEWEB-0191             
1 48239U 21031AF  22231.17782668 -.00000151  00000+0 -44279-3 0  9995
2 48239  87.9031 207.5517 0001063  61.0872 299.0364 13.14498718 64501
ONEWEB-0195             
1 48240U 21031AG  22230.69892190  .00000210  00000+0  53130-3 0  9995
2 48240  87.9035 207.6373 0002148  67.1880 292.9477 13.14500524 64426
ONEWEB-0201             
1 48241U 21031AH  22230.69470116  .00000261  00000+0  67078-3 0  9998
2 48241  87.9050 207.6790 0001950  82.8575 277.2776 13.14502348 64651
ONEWEB-0207             
1 48242U 21031AJ  22230.67037036 -.00000138  00000+0 -40641-3 0  9999
2 48242  87.9033 207.6523 0001743  88.3714 271.7615 13.14503279 64568
ONEWEB-0208             
1 48243U 21031AK  22230.64710719 -.00000081  00000+0 -25254-3 0  9993
2 48243  87.9026 207.6303 0002192  70.5839 289.5528 13.14499632 64575
ONEWEB-0200             
1 48244U 21031AL  22230.68727090  .00000136  00000+0  33317-3 0  9996
2 48244  87.9028 207.6133 0002133  68.5028 291.6329 13.14505621 64503
ONEWEB-0217             
1 48245U 21031AM  22230.70419420  .00000159  00000+0  39306-3 0  9994
2 48245  87.9034 207.6368 0002155  67.5976 292.5382 13.14504581 64453
ONEWEB-0211             
1 48767U 21045A   22230.40154997  .00000151  00000+0  36822-3 0  9992
2 48767  87.9133 177.5589 0002416  74.5601 285.5796 13.15550503 60504
ONEWEB-0223             
1 48768U 21045B   22230.42267504 -.00000038  00000+0 -13441-3 0  9992
2 48768  87.9137 177.5279 0002671  75.5502 284.5924 13.15550620 61636
ONEWEB-0230             
1 48769U 21045C   22231.07972960  .00000189  00000+0  46792-3 0  9994
2 48769  87.9176 177.4256 0002339  80.1767 279.9627 13.15544130 61952
ONEWEB-0237             
1 48770U 21045D   22230.38464313  .00000271  00000+0  68620-3 0  9993
2 48770  87.9164 177.4361 0002708  83.5781 276.5658 13.15550520 60474
ONEWEB-0235             
1 48771U 21045E   22230.35719270 -.00000085  00000+0 -26048-3 0  9999
2 48771  87.9180 177.4841 0003133  81.6677 278.4808 13.15546192 60469
