[{"OBJECT_NAME":"ONEWEB-0199","OBJECT_ID":"2021-031AA","EPOCH":"2022-08-18T16:08:23.623296","MEAN_MOTION":13.1450456,"ECCENTRICITY":0.000197,"INCLINATION":87.9037,"RA_OF_ASC_NODE":207.6627,"ARG_OF_PERICENTER":78.7132,"MEAN_ANOMALY":281.4219,"EPHEMERIS_TYPE":0,"CLASSIFICATION_TYPE":"U","NORAD_CAT_ID":48234,"ELEMENT_SET_NO":999,"REV_AT_EPOCH":6453,"BSTAR":-0.00030475,"MEAN_MOTION_DOT":-1.0e-6,"MEAN_MOTION_DDOT":0},{"OBJECT_NAME":"ONEWEB-0203","OBJECT_ID":"2021-031AB","EPOCH":"2022-08-18T15:53:10.187808","MEAN_MOTION":13.14502627,"ECCENTRICITY":0.0002587,"INCLINATION":87.9058,"RA_OF_ASC_NODE":207.6564,"ARG_OF_PERICENTER":82.2098,"MEAN_ANOMALY":277.9326,"EPHEMERIS_TYPE":0,"CLASSIFICATION_TYPE":"U","NORAD_CAT_ID":48235,"ELEMENT_SET_NO":999,"REV_AT_EPOCH":6454,"BSTAR":-0.00064691,"MEAN_MOTION_DOT":-2.27e-6,"MEAN_MOTION_DDOT":0},{"OBJECT_NAME":"ONEWEB-0197","OBJECT_ID":"2021-031AC","EPOCH":"2022-08-18T15:34:54.739488","MEAN_MOTION":13.14501657,"ECCENTRICITY":0.0002042,"INCLINATION":87.9044,"RA_OF_ASC_NODE":207.6711,"ARG_OF_PERICENTER":79.4321,"MEAN_ANOMALY":280.7039,"EPHEMERIS_TYPE":0,"CLASSIFICATION_TYPE":"U","NORAD_CAT_ID":48236,"ELEMENT_SET_NO":999,"REV_AT_EPOCH":6445,"BSTAR":-0.00033376,"MEAN_MOTION_DOT":-1.11e-6,"MEAN_MOTION_DDOT":0},{"OBJECT_NAME":"ONEWEB-0194","OBJECT_ID":"2021-031AD","EPOCH":"2022-08-18T16:38:50.227296","MEAN_MOTION":13.14501915,"ECCENTRICITY":0.0002463,"INCLINATION":87.9035,"RA_OF_ASC_NODE":207.6533,"ARG_OF_PERICENTER":87.8543,"MEAN_ANOMALY":272.2869,"EPHEMERIS_TYPE":0,"CLASSIFICATION_TYPE":"U","NORAD_CAT_ID":48237,"ELEMENT_SET_NO":999,"REV_AT_EPOCH":6463,"BSTAR":0.00067291,"MEAN_MOTION_DOT":2.62e-6,"MEAN_MOTION_DDOT":0},{"OBJECT_NAME":"ONEWEB-0193","OBJECT_ID":"2021-031AE","EPOCH":"2022-08-18T22:32:01.238208","MEAN_MOTION":13.14500448,"ECCENTRICITY":0.0002237,"INCLINATION":87.9045,"RA_OF_ASC_NODE":207.6145,"ARG_OF_PERICENTER":77.503,"MEAN_ANOMALY":282.635,"EPHEMERIS_TYPE":0,"CLASSIFICATION_TYPE":"U","NORAD_CAT_ID":48238,"ELEMENT_SET_NO":999,"REV_AT_EPOCH":6461,"BSTAR":0.00036853,"MEAN_MOTION_DOT":1.49e-6,"MEAN_MOTION_DDOT":0},{"OBJECT_NAME":"ONEWEB-0191","OBJECT_ID":"2021-031AF","EPOCH":"2022-08-19T04:16:04.225152","MEAN_MOTION":13.14498718,"ECCENTRICITY":0.0001063,"INCLINATION":87.9031,"RA_OF_ASC_NODE":207.5517,"ARG_OF_PERICENTER":61.0872,"MEAN_ANOMALY":299.0364,"EPHEMERIS_TYPE":0,"CLASSIFICATION_TYPE":"U","NORAD_CAT_ID":48239,"ELEMENT_SET_NO":999,"REV_AT_EPOCH":6450,"BSTAR":-0.00044279,"MEAN_MOTION_DOT":-1.51e-6,"MEAN_MOTION_DDOT":0},{"OBJECT_NAME":"ONEWEB-0195","OBJECT_ID":"2021-031AG","EPOCH":"2022-08-18T16:46:26.852160","MEAN_MOTION":13.14500524,"ECCENTRICITY":0.0002148,"INCLINATION":87.9035,"RA_OF_ASC_NODE":207.6373,"ARG_OF_PERICENTER":67.188,"MEAN_ANOMALY":292.9477,"EPHEMERIS_TYPE":0,"CLASSIFICATION_TYPE":"U","NORAD_CAT_ID":48240,"ELEMENT_SET_NO":999,"REV_AT_EPOCH":6442,"BSTAR":0.0005313,"MEAN_MOTION_DOT":2.1e-6,"MEAN_MOTION_DDOT":0},{"OBJECT_NAME":"ONEWEB-0201","OBJECT_ID":"2021-031AH","EPOCH":"2022-08-18T16:40:22.180224","MEAN_MOTION":13.14502348,"ECCENTRICITY":0.000195,"INCLINATION":87.905,"RA_OF_ASC_NODE":207.679,"ARG_OF_PERICENTER":82.8575,"MEAN_ANOMALY":277.2776,"EPHEMERIS_TYPE":0,"CLASSIFICATION_TYPE":"U","NORAD_CAT_ID":48241,"ELEMENT_SET_NO":999,"REV_AT_EPOCH":6465,"BSTAR":0.00067078,"MEAN_MOTION_DOT":2.61e-6,"MEAN_MOTION_DDOT":0},{"OBJECT_NAME":"ONEWEB-0207","OBJECT_ID":"2021-031AJ","EPOCH":"2022-08-18T16:05:19.999104","MEAN_MOTION":13.14503279,"ECCENTRICITY":0.0001743,"INCLINATION":87.9033,"RA_OF_ASC_NODE":207.6523,"ARG_OF_PERICENTER":88.3714,"MEAN_ANOMALY":271.7615,"EPHEMERIS_TYPE":0,"CLASSIFICATION_TYPE":"U","NORAD_CAT_ID":48242,"ELEMENT_SET_NO":999,"REV_AT_EPOCH":6456,"BSTAR":-0.00040641,"MEAN_MOTION_DOT":-1.38e-6,"MEAN_MOTION_DDOT":0},{"OBJECT_NAME":"ONEWEB-0208","OBJECT_ID":"2021-031AK","EPOCH":"2022-08-18T15:31:50.061216","MEAN_MOTION":13.14499632,"ECCENTRICITY":0.0002192,"INCLINATION":87.9026,"RA_OF_ASC_NODE":207.6303,"ARG_OF_PERICENTER":70.5839,"MEAN_ANOMALY":289.5528,"EPHEMERIS_TYPE":0,"CLASSIFICATION_TYPE":"U","NORAD_CAT_ID":48243,"ELEMENT_SET_NO":999,"REV_AT_EPOCH":6457,"BSTAR":-0.00025254,"MEAN_MOTION_DOT":-8.1e-7,"MEAN_MOTION_DDOT":0},{"OBJECT_NAME":"ONEWEB-0200","OBJECT_ID":"2021-031AL","EPOCH":"2022-08-18T16:29:40.205760","MEAN_MOTION":13.14505621,"ECCENTRICITY":0.0002133,"INCLINATION":87.9028,"RA_OF_ASC_NODE":207.6133,"ARG_OF_PERICENTER":68.5028,"MEAN_ANOMALY":291.6329,"EPHEMERIS_TYPE":0,"CLASSIFICATION_TYPE":"U","NORAD_CAT_ID":48244,"ELEMENT_SET_NO":999,"REV_AT_EPOCH":6450,"BSTAR":0.00033317,"MEAN_MOTION_DOT":1.36e-6,"MEAN_MOTION_DDOT":0},{"OBJECT_NAME":"ONEWEB-0217","OBJECT_ID":"2021-031AM","EPOCH":"2022-08-18T16:54:02.378880","MEAN_MOTION":13.14504581,"ECCENTRICITY":0.0002155,"INCLINATION":87.9034,"RA_OF_ASC_NODE":207.6368,"ARG_OF_PERICENTER":67.5976,"MEAN_ANOMALY":292.5382,"EPHEMERIS_TYPE":0,"CLASSIFICATION_TYPE":"U","NORAD_CAT_ID":48245,"ELEMENT_SET_NO":999,"REV_AT_EPOCH":6445,"BSTAR":0.00039306,"MEAN_MOTION_DOT":1.59e-6,"MEAN_MOTION_DDOT":0},{"OBJECT_NAME":"ONEWEB-0211","OBJECT_ID":"2021-045A","EPOCH":"2022-08-18T09:38:13.917408","MEAN_MOTION":13.15550503,"ECCENTRICITY":0.0002416,"INCLINATION":87.9133,"RA_OF_ASC_NODE":177.5589,"ARG_OF_PERICENTER":74.5601,"MEAN_ANOMALY":285.5796,"EPHEMERIS_TYPE":0,"CLASSIFICATION_TYPE":"U","NORAD_CAT_ID":48767,"ELEMENT_SET_NO":999,"REV_AT_EPOCH":6050,"BSTAR":0.00036822,"MEAN_MOTION_DOT":1.51e-6,"MEAN_MOTION_DDOT":0},{"OBJECT_NAME":"ONEWEB-0223","OBJECT_ID":"2021-045B","EPOCH":"2022-08-18T10:08:39.123456","MEAN_MOTION":13.1555062,"ECCENTRICITY":0.0002671,"INCLINATION":87.9137,"RA_OF_ASC_NODE":177.5279,"ARG_OF_PERICENTER":75.5502,"MEAN_ANOMALY":284.5924,"EPHEMERIS_TYPE":0,"CLASSIFICATION_TYPE":"U","NORAD_CAT_ID":48768,"ELEMENT_SET_NO":999,"REV_AT_EPOCH":6163,"BSTAR":-0.00013441,"MEAN_MOTION_DOT":-3.8e-7,"MEAN_MOTION_DDOT":0},{"OBJECT_NAME":"ONEWEB-0230","OBJECT_ID":"2021-045C","EPOCH":"2022-08-19T01:54:48.637440","MEAN_MOTION":13.1554413,"ECCENTRICITY":0.0002339,"INCLINATION":87.9176,"RA_OF_ASC_NODE":177.4256,"ARG_OF_PERICENTER":80.1767,"MEAN_ANOMALY":279.9627,"EPHEMERIS_TYPE":0,"CLASSIFICATION_TYPE":"U","NORAD_CAT_ID":48769,"ELEMENT_SET_NO":999,"REV_AT_EPOCH":6195,"BSTAR":0.00046792,"MEAN_MOTION_DOT":1.89e-6,"MEAN_MOTION_DDOT":0},{"OBJECT_NAME":"ONEWEB-0237","OBJECT_ID":"2021-045D","EPOCH":"2022-08-18T09:13:53.166432","MEAN_MOTION":13.1555052,"ECCENTRICITY":0.0002708,"INCLINATION":87.9164,"RA_OF_ASC_NODE":177.4361,"ARG_OF_PERICENTER":83.5781,"MEAN_ANOMALY":276.5658,"EPHEMERIS_TYPE":0,"CLASSIFICATION_TYPE":"U","NORAD_CAT_ID":48770,"ELEMENT_SET_NO":999,"REV_AT_EPOCH":6047,"BSTAR":0.0006862,"MEAN_MOTION_DOT":2.71e-6,"MEAN_MOTION_DDOT":0},{"OBJECT_NAME":"ONEWEB-0235","OBJECT_ID":"2021-045E","EPOCH":"2022-08-18T08:34:21.449280","MEAN_MOTION":13.15546192,"ECCENTRICITY":0.0003133,"INCLINATION":87.918,"RA_OF_ASC_NODE":177.4841,"ARG_OF_PERICENTER":81.6677,"MEAN_ANOMALY":278.4808,"EPHEMERIS_TYPE":0,"CLASSIFICATION_TYPE":"U","NORAD_CAT_ID":48771,"ELEMENT_SET_NO":999,"REV_AT_EPOCH":6046,"BSTAR":-0.00026048,"MEAN_MOTION_DOT":-8.5e-7,"MEAN_MOTION_DDOT":0}]